ZHUHAI-1 01 (CAS-4A)    
1 42761U 17034D   23237.55650931  .00008437  00000+0  40986-3 0  9997
2 42761  43.0141  88.2272 0012073 199.1199 160.9197 15.18663006342172
MAX VALIER SAT          
1 42778U 17036P   23237.60088287  .00022795  00000+0  52873-3 0  9993
2 42778  97.1490 270.9466 0007555 189.7262 170.3841 15.42374818343413
RADFXSAT (FOX-1B)       
1 43017U 17073E   23237.57952612  .00004495  00000+0  31248-3 0  9999
2 43017  97.6199 119.1953 0229563 199.5492 159.6816 14.87080271311495
FOX-1D (AO-92)          
1 43137U 18004AC  23237.52690186  .00045123  00000+0  75599-3 0  9997
2 43137  97.3227 317.7243 0004570 232.7842 127.2994 15.51711741313049
DIWATA-2B               
1 43678U 18084H   23237.59630689  .00001416  00000+0  13958-3 0  9992
2 43678  98.0325  23.0120 0008338 295.9780  64.0580 14.93671164262620
ES'HAIL 2               
1 43700U 18090A   23237.18799355  .00000149  00000+0  00000+0 0  9998
2 43700   0.0143 176.0073 0002279   3.7164 246.9466  1.00269862 17378
FOX-1CLIFF (AO-95)      
1 43770U 18099N   23237.39215735  .00005606  00000+0  44735-3 0  9992
2 43770  97.5752 297.0827 0013064 277.1707  82.8031 15.00620313257982
ITASAT 1                
1 43786U 18099AE  23237.14507094  .00003561  00000+0  28940-3 0  9992
2 43786  97.5715 297.8716 0014876 257.2726 102.6836 15.00140360257988
JY1SAT (JO-97)          
1 43803U 18099AX  23237.56666350  .00005355  00000+0  41591-3 0  9999
2 43803  97.5707 298.4085 0011544 220.6482 139.3882 15.01685864258104
UWE-4                   
1 43880U 18111E   23237.54547066  .00006337  00000+0  47275-3 0  9995
2 43880  97.6275 141.6658 0016889 299.7511  60.2033 15.03098486254782
NEXUS (FO-99)           
1 43937U 19003F   23237.55086178  .00091054  00000+0  98635-3 0  9998
2 43937  97.0796 264.3429 0008447  39.8704 320.3174 15.63220678256845
JAISAT-1                
1 44419U 19038F   23237.39836532  .00028338  00000+0  86421-3 0  9996
2 44419  97.6773 221.6117 0016144  65.3837 294.9085 15.33781577229132
DUCHIFAT-3              
1 44854U 19089C   23237.45359197  .00009515  00000+0  61994-3 0  9993
2 44854  36.9622  36.9586 0007055 168.6016 191.4889 15.07432169203358
CAS-6 (TIANQIN 1)       
1 44881U 19093C   23237.54095964  .00001084  00000+0  14070-3 0  9993
2 44881  97.8583 314.8088 0014057 207.1278 152.9203 14.82696943199073
RS-44 & BREEZE-KM R/B   
1 44909U 19096E   23237.56997925  .00000009  00000+0 -11332-4 0  9993
2 44909  82.5215 301.8493 0217790  25.0463 336.1016 12.79722116171035
BY70-2                  
1 45857U 20042B   23237.56493370  .00010095  00000+0  96868-3 0  9995
2 45857  97.9225 317.8295 0009849 139.3999 220.7956 14.93257300169880
SALSAT                  
1 46495U 20068K   23237.52470367  .00004517  00000+0  29402-3 0  9991
2 46495  97.7735 186.3086 0013503 240.4569 119.5313 15.08414343159520
RADFXSAT-2 (AO-109)     
1 47311U 21002C   23237.35157882  .00032604  00000+0  73874-3 0  9993
2 47311  60.6792 151.8965 0007483 327.7339  32.3299 15.42913416144945
UVSQ-SAT                
1 47438U 21006AB  23237.16928720  .00017481  00000+0  66897-3 0  9996
2 47438  97.3788 293.3654 0009487 188.9933 171.1137 15.26588656143169
LEDSAT                  
1 49069U 21073D   23237.15188464  .00009214  00000+0  48858-3 0  9996
2 49069  97.4772 306.8986 0022409 239.4528 120.4493 15.15373152111342
XW-3 (CAS-9)            
1 50466U 21131B   23237.56485553  .00000593  00000+0  20641-3 0  9999
2 50466  98.5496 318.8918 0003123 299.1811  60.9064 14.39018263 87335
TEVEL-3                 
1 50988U 22002E   23237.53271562  .00020317  00000+0  74474-3 0  9995
2 50988  97.4279 304.1432 0006228 359.2449   0.8780 15.28005710 89347
TEVEL-8                 
1 50989U 22002F   23237.42363571  .00021640  00000+0  79481-3 0  9999
2 50989  97.4294 304.1014 0006266 358.7245   1.3977 15.27927791 89324
TEVEL-5                 
1 50998U 22002Q   23237.43720018  .00022352  00000+0  79524-3 0  9992
2 50998  97.4272 304.5197 0007137 351.3937   8.7179 15.28960815 89365
TEVEL-6                 
1 50999U 22002R   23237.43575477  .00022060  00000+0  78502-3 0  9991
2 50999  97.4270 304.5114 0007143 350.9644   9.1466 15.28957670 89369
TEVEL-1                 
1 51013U 22002AF  23237.54480453  .00020388  00000+0  74860-3 0  9994
2 51013  97.4270 304.0864 0006158 358.7932   1.3292 15.27950093 89345
TEVEL-7                 
1 51062U 22002CG  23237.48911815  .00020014  00000+0  73484-3 0  9999
2 51062  97.4290 304.1380 0006203 357.9348   2.1864 15.27954737 89330
TEVEL-4                 
1 51063U 22002CH  23237.43243572  .00021318  00000+0  78405-3 0  9999
2 51063  97.4288 304.0573 0006244 358.3152   1.8065 15.27885479 89328
TEVEL-2                 
1 51069U 22002CP  23237.53428627  .00020458  00000+0  74975-3 0  9994
2 51069  97.4276 304.1140 0006190 359.1198   1.0029 15.28012806 89342
GREENCUBE               
1 53106U 22080B   23235.44552909 -.00000003  00000+0  00000+0 0  9992
2 53106  70.1535 296.3528 0008587 173.6806 186.3963  6.42556895 26073
CYCLOPS (RS29S SXC3-21*)
1 53373U 22096D   23237.53990198  .00039706  00000+0  87066-3 0  9995
2 53373  97.4038 144.8412 0003002 101.2765 258.8821 15.43968238 58371
MONITOR-1 (RS32S SXC3-*)
1 53374U 22096E   23237.55736095  .00034144  00000+0  78440-3 0  9999
2 53374  97.4012 144.6001 0002512 112.7768 247.3745 15.42610982 58367
KUZBASS-300 (RS34S SXC*)
1 53375U 22096F   23237.55370593  .00025162  00000+0  63626-3 0  9997
2 53375  97.4049 144.0688 0002156 109.4743 250.6736 15.39769162 58327
UTMN (RS23S SXC3-216)   
1 53376U 22096G   23237.54963353  .00028262  00000+0  69807-3 0  9990
2 53376  97.4044 144.2158 0002408 104.2861 255.8653 15.40461338 58333
MIET-AIS (RS28S SXC3-2*)
1 53377U 22096H   23237.52569869  .00022620  00000+0  58709-3 0  9994
2 53377  97.4059 143.9696 0002142 111.4792 248.6681 15.38990565 58316
KAI-1 (RS26S)           
1 53378U 22096J   23237.57431039  .00020386  00000+0  56320-3 0  9991
2 53378  97.4076 143.6301 0001988 110.3254 249.8204 15.37081313 58296
ISOI (RS19S SXC3-219)   
1 53381U 22096M   23237.56363711  .00024810  00000+0  62398-3 0  9993
2 53381  97.4049 144.3477 0004592 134.0138 226.1487 15.39928781 58348
CUBESX-HSE-2 (RS21S)    
1 53383U 22096P   23237.57589769  .00027275  00000+0  66925-3 0  9997
2 53383  97.4048 144.4965 0005041 136.0419 224.1229 15.40659276 58351
SIREN (RS30S SXC3-217)  
1 53384U 22096Q   23237.55750848  .00023071  00000+0  60665-3 0  9999
2 53384  97.4064 144.0904 0005051 136.0099 224.1549 15.38576354 58328
GEOSCAN-EDELVEIS (RS20S)
1 53385U 22096R   23237.56423603  .00040444  00000+0  83685-3 0  9997
2 53385  97.4020 145.5391 0006561 127.6470 232.5375 15.45660257 58451
VIZARD (RS33S SXC3-215) 
1 53386U 22096S   23237.52506492  .00060052  00000+0  10045-2 0  9998
2 53386  97.4022 146.6632 0007105 129.2451 230.9432 15.51673514 58516
CAS-5A (FO-118)         
1 54684U 22167C   23237.56745823  .00011682  00000+0  61469-3 0  9998
2 54684  97.5703  14.7822 0014054  96.4445 263.8388 15.15715219 39186
STRATOSAT-TK 1 (RS52S)  
1 57167U 23091B   23237.50814559  .00007256  00000+0  52688-3 0  9996
2 57167  97.6583 287.6444 0018816  54.6223 305.6757 15.04039316  8853
UMKA 1 (RS40S)          
1 57172U 23091G   23237.50943603  .00003525  00000+0  26017-3 0  9997
2 57172  97.6583 287.6431 0019091  53.3255 306.9722 15.03773169  8858
CUBESX-HSE 3 (RS42S)    
1 57178U 23091N   23237.51436976  .00004358  00000+0  32080-3 0  9996
2 57178  97.6624 287.6685 0020145  48.8125 311.4833 15.03732850  8854
MONITOR-4 (RS57S)       
1 57182U 23091S   23237.51688211  .00004100  00000+0  30267-3 0  9992
2 57182  97.6616 287.6575 0020516  49.8448 310.4570 15.03648378  8857
MONITOR-2 (RS39S)       
1 57184U 23091U   23237.55008508  .00003752  00000+0  27235-3 0  9996
2 57184  97.6636 287.7640 0015996  44.4695 315.7811 15.04406712  8868
SVYATOBOR 1 (RS60S)     
1 57187U 23091X   23237.54129877  .00004512  00000+0  32398-3 0  9992
2 57187  97.6638 287.7763 0015909  44.0994 316.1498 15.04710798  8869
VIZARD-METEO (RS38S)    
1 57189U 23091Z   23237.52808341  .00005062  00000+0  35923-3 0  9990
2 57189  97.6628 287.7880 0014973  43.7262 316.5147 15.05103988  8867
NANOZOND 1 (RS49S)      
1 57190U 23091AA  23237.45213873  .00006378  00000+0  44733-3 0  9994
2 57190  97.6597 287.7100 0013621  49.9076 310.3342 15.05455976  8854
POLYTECH-UNIVERSE 3 (R*)
1 57191U 23091AB  23237.58376241  .00002633  00000+0  19660-3 0  9999
2 57191  97.6592 287.6997 0020121  54.0562 306.2527 15.03548041  8867
UTMN 2 (RS27S)          
1 57203U 23091AP  23237.53131554  .00004872  00000+0  34681-3 0  9991
2 57203  97.6629 287.7837 0015323  43.7134 316.5302 15.04999352  8865
ARCCUBE 1 (RS25S)       
1 57205U 23091AR  23237.51982992  .00007303  00000+0  51110-3 0  9999
2 57205  97.6581 287.7620 0014004  51.4643 308.7837 15.05481299  8863
KUZGTU 1 (RS47S)        
1 57217U 23091AV  23237.51274838  .00004263  00000+0  31365-3 0  9997
2 57217  97.6597 287.6518 0019987  49.9373 310.3601 15.03762311  8857
